MOLNIYA 2-9             
1 07276U 74026A   21078.47679613  .00000025  00000-0  00000+0 0  9998
2 07276  64.1967 295.0360 6705605 285.9998  13.8705  2.45094549238235
MOLNIYA 2-10            
1 07376U 74056A   21074.50497172  .00000025  00000-0  00000+0 0  9990
2 07376  63.6349 141.2342 6671477 290.4000  12.8926  2.01068139341158
MOLNIYA 1-S             
1 07392U 74060A   21078.20132042  .00000087  00000-0  00000+0 0  9994
2 07392   6.2375 289.6632 0009325 187.8706 184.6752  1.00325335114942
MOLNIYA 1-29            
1 07780U 75036A   21077.58532304  .00000032  00000-0 -10918-1 0  9996
2 07780  63.2231 271.7220 7222453 289.4737   9.8509  2.00644004336505
MOLNIYA 2-14            
1 08195U 75081A   21077.91491141 -.00001347  00000-0 -32002-2 0  9997
2 08195  63.2908 241.2398 7106235 294.0184   9.4695  2.02092525333700
MOLNIYA 1-32            
1 08601U 76006A   21077.08061944 -.00000150  00000-0 -72369-3 0  9991
2 08601  63.0817   6.2612 7416093 281.5639  10.7202  2.00097292329875
MOLNIYA 1-36            
1 09880U 77021A   21076.80299151  .00000717  00000-0 -26083-3 0  9991
2 09880  63.0525 336.0374 7426081 287.6030   9.3449  2.00911907220291
MOLNIYA 3-8             
1 10455U 77105A   21077.07811603  .00001217  00000-0  25946-2 0  9997
2 10455  62.6508  69.4255 7355890 279.1410  11.5993  2.00764354317905
MOLNIYA 1-40            
1 10925U 78055A   21077.17765283  .00000861  00000-0  00000-0 0  9993
2 10925  62.6542 111.5902 7127405 278.9964  13.1219  2.00594848313525
MOLNIYA 3-10            
1 11057U 78095A   21077.55439832  .00000012  00000-0 -49325-4 0  9990
2 11057  62.8337 210.1867 5876445 304.0891  13.2712  4.09817024365054
MOLNIYA 3-13            
1 11896U 80063A   21077.38436249  .00000567  00000-0  00000-0 0  9996
2 11896  62.6066 194.0445 7058532 276.0811  14.4515  2.00619531297954
MOLNIYA 1-49            
1 12156U 81009A   21074.29806304  .00000405  00000-0  19314-2 0  9998
2 12156  61.7974 233.2091 7183742 256.1207  21.0914  2.05695883212048
MOLNIYA 1-52            
1 13012U 81123A   21076.71021819 -.00001331  00000-0  00000-0 0  9996
2 13012  62.8725 347.6222 7306795 249.5992  23.2460  2.00506164287415
MOLNIYA 1-53            
1 13070U 82015A   21077.52263856 -.00001302  00000-0 -46212-4 0  9998
2 13070  62.5292 276.7972 7331587 279.5424  11.5167  2.00828462286117
MOLNIYA 3-20            
1 13875U 83015A   21076.98075854 -.00000297  00000-0  00000-0 0  9992
2 13875  63.2799  62.6404 7296451 255.6778  20.2652  2.00403654214556
MOLNIYA 1-56            
1 13890U 83019A   21077.41026177 -.00001472  00000-0  00000-0 0  9992
2 13890  63.1434  88.2258 7288336 261.1289 346.2478  1.99881627277475
MOLNIYA 1-62            
1 15214U 84089A   21078.12120672  .00001485  00000-0  12164-2 0  9995
2 15214  62.7187  92.4381 7430834 266.7268  14.5980  1.97928130235242
MOLNIYA 1-63            
1 15429U 84124A   21077.81588719 -.00000418  00000-0  00000-0 0  9998
2 15429  63.7780 209.9723 6536481 263.8919 343.6290  2.00837447265619
MOLNIYA 3-24            
1 15738U 85040A   21077.42377601  .00000072  00000-0  00000-0 0  9997
2 15738  63.8227 162.0854 6571989 249.4792  32.0481  2.55629142292212
MOLNIYA 3-27            
1 16393U 85117A   21074.65611349  .00000059  00000-0  00000-0 0  9997
2 16393  64.6101 136.5495 6698106 253.1551  28.0740  2.12399275264433
MOLNIYA 1-69            
1 17078U 86089A   21072.25592798 -.00000180  00000-0  00000-0 0  9993
2 17078  64.0311 229.9646 6624529 263.3331  23.0721  2.00696128251561
MOLNIYA 3-31            
1 17328U 87008A   21077.34259560  .00000482  00000-0  00000-0 0  9999
2 17328  63.7777 178.2462 6758747 257.6311  24.7762  2.00556301246719
MOLNIYA 1-71            
1 18946U 88017A   21076.82299373  .00000234  00000-0  00000+0 0  9999
2 18946  63.5065 176.7885 6878947 258.9686  22.8335  2.00652579241938
MOLNIYA 1-75            
1 19807U 89014A   21078.03633582 -.00000446  00000-0  00000+0 0  9999
2 19807  64.3396 337.8480 7027701 269.7419  16.8555  2.00542635234942
MOLNIYA 1-80            
1 21118U 91012A   21077.08885096  .00000859  00000-0  00000+0 0  9998
2 21118  64.8329  24.5140 6875385 283.3479  13.6584  2.05236882221627
MOLNIYA 3-40            
1 21196U 91022A   21074.23817609 -.00000847  00000-0  00000-0 0  9993
2 21196  64.9119  18.1080 6912356 280.1130  14.3804  2.03004357220363
MOLNIYA 1-81            
1 21426U 91043A   21077.94595033  .00000044  00000-0  00000+0 0  9994
2 21426  64.1729  42.0918 7083487 270.0899  16.3203  2.00623146218002
MOLNIYA 3-41            
1 21706U 91065A   21077.82417724 -.00000702  00000-0  00000-0 0  9999
2 21706  64.1246 213.3795 6709984 261.3460  23.2851  2.04355886217604
MOLNIYA 3-42            
1 22178U 92067A   21076.97222375  .00000067  00000-0  00000-0 0  9990
2 22178  64.7143 266.3160 6612823 274.0275  18.4886  2.20433366 70119
MOLNIYA 1-86            
1 22671U 93035A   21078.16941691  .00000005  00000-0  75766-4 0  9993
2 22671  63.1056 139.8571 4844910   0.8198 359.8189  5.62615981326637
MOLNIYA 1-87            
1 22949U 93079A   21075.62165734 -.00000890  00000-0  00000-0 0  9991
2 22949  63.4870 142.8953 6785960 287.3338  13.0404  2.02868898 65647
MOLNIYA 1-88            
1 23420U 94081A   21077.88311843  .00000003  00000-0  00000+0 0  9998
2 23420  64.2485 299.4313 5964536 290.4020  17.2628  3.34495324231704
MOLNIYA 3-47            
1 23642U 95042A   21078.22195885  .00000476  00000-0  00000+0 0  9991
2 23642  63.4188 125.8339 6820915 287.0168  12.8998  2.01978397187912
MOLNIYA 1-90            
1 24960U 97054A   21077.47535209 -.00000002  00000-0 -35984-3 0  9994
2 24960  63.5860 269.7052 6297259 300.7621  12.0577  3.18685998193553
MOLNIYA 1-91            
1 25485U 98054A   21078.34370109  .00000107  00000-0  22925-2 0  9995
2 25485  62.9451 223.2756 6950521 291.1353  12.3568  2.36442345167611
MOLNIYA 3-50            
1 25847U 99036A   21077.96689251  .00000201  00000-0 -99752-4 0  9996
2 25847  62.6248  47.8474 7431441 278.5506  11.2934  2.00610996158970
